[{"OBJECT_NAME":"FENGYUN 1C DEB","OBJECT_ID":"1999-025AWL","EPOCH":"2026-03-29T02:34:03.958464","MEAN_MOTION":14.17173996,"ECCENTRICITY":0.0108297,"INCLINATION":98.3937,"RA_OF_ASC_NODE":312.6687,"ARG_OF_PERICENTER":250.3209,"MEAN_ANOMALY":262.6175,"EPHEMERIS_TYPE":0,"CLASSIFICATION_TYPE":"U","NORAD_CAT_ID":30850,"ELEMENT_SET_NO":999,"REV_AT_EPOCH":97304,"BSTAR":0.0016711,"MEAN_MOTION_DOT":3.528e-5,"MEAN_MOTION_DDOT":0},{"OBJECT_NAME":"FENGYUN 1C DEB","OBJECT_ID":"1999-025AWN","EPOCH":"2026-03-28T18:40:03.533088","MEAN_MOTION":14.10490125,"ECCENTRICITY":0.00551978,"INCLINATION":98.7274,"RA_OF_ASC_NODE":107.4714,"ARG_OF_PERICENTER":295.0393,"MEAN_ANOMALY":64.5054,"EPHEMERIS_TYPE":0,"CLASSIFICATION_TYPE":"U","NORAD_CAT_ID":30852,"ELEMENT_SET_NO":999,"REV_AT_EPOCH":97877,"BSTAR":0.00047213734,"MEAN_MOTION_DOT":8.09e-6,"MEAN_MOTION_DDOT":0},{"OBJECT_NAME":"FENGYUN 1C DEB","OBJECT_ID":"1999-025AWS","EPOCH":"2026-03-28T00:20:15.470880","MEAN_MOTION":14.49938773,"ECCENTRICITY":0.00819865,"INCLINATION":98.2041,"RA_OF_ASC_NODE":273.7498,"ARG_OF_PERICENTER":274.9031,"MEAN_ANOMALY":243.2418,"EPHEMERIS_TYPE":0,"CLASSIFICATION_TYPE":"U","NORAD_CAT_ID":30856,"ELEMENT_SET_NO":999,"REV_AT_EPOCH":98049,"BSTAR":0.0035232188,"MEAN_MOTION_DOT":0.00014205,"MEAN_MOTION_DDOT":0},{"OBJECT_NAME":"FENGYUN 1C DEB","OBJECT_ID":"1999-025AWT","EPOCH":"2026-03-28T17:31:18.290784","MEAN_MOTION":14.55574704,"ECCENTRICITY":0.00371913,"INCLINATION":98.9737,"RA_OF_ASC_NODE":89.9748,"ARG_OF_PERICENTER":339.174,"MEAN_ANOMALY":20.7938,"EPHEMERIS_TYPE":0,"CLASSIFICATION_TYPE":"U","NORAD_CAT_ID":30857,"ELEMENT_SET_NO":999,"REV_AT_EPOCH":98263,"BSTAR":0.0047845669,"MEAN_MOTION_DOT":0.00021064,"MEAN_MOTION_DDOT":0},{"OBJECT_NAME":"FENGYUN 1C DEB","OBJECT_ID":"1999-025AWU","EPOCH":"2026-03-29T03:27:28.649376","MEAN_MOTION":14.17962874,"ECCENTRICITY":0.0030815,"INCLINATION":98.7809,"RA_OF_ASC_NODE":149.7044,"ARG_OF_PERICENTER":163.0299,"MEAN_ANOMALY":224.4988,"EPHEMERIS_TYPE":0,"CLASSIFICATION_TYPE":"U","NORAD_CAT_ID":30858,"ELEMENT_SET_NO":999,"REV_AT_EPOCH":98488,"BSTAR":0.00036929,"MEAN_MOTION_DOT":7.15e-6,"MEAN_MOTION_DDOT":0},{"OBJECT_NAME":"FENGYUN 1C DEB","OBJECT_ID":"1999-025AWV","EPOCH":"2026-03-28T21:12:22.588992","MEAN_MOTION":14.5156515,"ECCENTRICITY":0.0031096,"INCLINATION":98.9164,"RA_OF_ASC_NODE":149.2375,"ARG_OF_PERICENTER":78.1138,"MEAN_ANOMALY":282.3539,"EPHEMERIS_TYPE":0,"CLASSIFICATION_TYPE":"U","NORAD_CAT_ID":30859,"ELEMENT_SET_NO":999,"REV_AT_EPOCH":98573,"BSTAR":0.0030838,"MEAN_MOTION_DOT":0.00012391,"MEAN_MOTION_DDOT":0},{"OBJECT_NAME":"FENGYUN 1C DEB","OBJECT_ID":"1999-025AWW","EPOCH":"2026-03-29T04:25:54.856416","MEAN_MOTION":14.26244284,"ECCENTRICITY":0.0038777,"INCLINATION":98.8937,"RA_OF_ASC_NODE":168.2847,"ARG_OF_PERICENTER":237.2448,"MEAN_ANOMALY":122.4992,"EPHEMERIS_TYPE":0,"CLASSIFICATION_TYPE":"U","NORAD_CAT_ID":30860,"ELEMENT_SET_NO":999,"REV_AT_EPOCH":98033,"BSTAR":0.0015371,"MEAN_MOTION_DOT":3.67e-5,"MEAN_MOTION_DDOT":0},{"OBJECT_NAME":"FENGYUN 1C DEB","OBJECT_ID":"1999-025AWY","EPOCH":"2026-03-27T18:11:14.364096","MEAN_MOTION":14.45479184,"ECCENTRICITY":0.00520987,"INCLINATION":98.9523,"RA_OF_ASC_NODE":188.0579,"ARG_OF_PERICENTER":206.2297,"MEAN_ANOMALY":307.4448,"EPHEMERIS_TYPE":0,"CLASSIFICATION_TYPE":"U","NORAD_CAT_ID":30862,"ELEMENT_SET_NO":999,"REV_AT_EPOCH":98235,"BSTAR":0.0027221952,"MEAN_MOTION_DOT":9.717e-5,"MEAN_MOTION_DDOT":0},{"OBJECT_NAME":"FENGYUN 1C DEB","OBJECT_ID":"1999-025AWZ","EPOCH":"2026-03-28T10:32:18.462048","MEAN_MOTION":12.4091186,"ECCENTRICITY":0.08693055,"INCLINATION":99.1342,"RA_OF_ASC_NODE":258.6101,"ARG_OF_PERICENTER":27.5524,"MEAN_ANOMALY":1.1489,"EPHEMERIS_TYPE":0,"CLASSIFICATION_TYPE":"U","NORAD_CAT_ID":30863,"ELEMENT_SET_NO":999,"REV_AT_EPOCH":61051,"BSTAR":0.0020584382,"MEAN_MOTION_DOT":1.035e-5,"MEAN_MOTION_DDOT":0},{"OBJECT_NAME":"FENGYUN 1C DEB","OBJECT_ID":"1999-025AXD","EPOCH":"2026-03-29T05:04:15.742848","MEAN_MOTION":14.29124994,"ECCENTRICITY":0.0054149,"INCLINATION":97.874,"RA_OF_ASC_NODE":349.75,"ARG_OF_PERICENTER":37.1934,"MEAN_ANOMALY":113.7716,"EPHEMERIS_TYPE":0,"CLASSIFICATION_TYPE":"U","NORAD_CAT_ID":30867,"ELEMENT_SET_NO":999,"REV_AT_EPOCH":98057,"BSTAR":0.0022116,"MEAN_MOTION_DOT":5.664e-5,"MEAN_MOTION_DDOT":0},{"OBJECT_NAME":"FENGYUN 1C DEB","OBJECT_ID":"1999-025AXE","EPOCH":"2026-03-28T21:40:29.461728","MEAN_MOTION":14.1118152,"ECCENTRICITY":0.01346049,"INCLINATION":98.2512,"RA_OF_ASC_NODE":322.5006,"ARG_OF_PERICENTER":267.9497,"MEAN_ANOMALY":111.8152,"EPHEMERIS_TYPE":0,"CLASSIFICATION_TYPE":"U","NORAD_CAT_ID":30868,"ELEMENT_SET_NO":999,"REV_AT_EPOCH":98208,"BSTAR":0.0001019181,"MEAN_MOTION_DOT":1.6e-6,"MEAN_MOTION_DDOT":0},{"OBJECT_NAME":"FENGYUN 1C DEB","OBJECT_ID":"1999-025AXJ","EPOCH":"2026-03-29T03:00:04.104000","MEAN_MOTION":14.40107629,"ECCENTRICITY":0.0042387,"INCLINATION":99.1744,"RA_OF_ASC_NODE":153.1169,"ARG_OF_PERICENTER":76.4838,"MEAN_ANOMALY":314.1125,"EPHEMERIS_TYPE":0,"CLASSIFICATION_TYPE":"U","NORAD_CAT_ID":30872,"ELEMENT_SET_NO":999,"REV_AT_EPOCH":99267,"BSTAR":0.00094013,"MEAN_MOTION_DOT":2.95e-5,"MEAN_MOTION_DDOT":0},{"OBJECT_NAME":"FENGYUN 1C DEB","OBJECT_ID":"1999-025AXK","EPOCH":"2026-03-27T17:09:57.683808","MEAN_MOTION":14.1924199,"ECCENTRICITY":0.01083092,"INCLINATION":98.6167,"RA_OF_ASC_NODE":89.1239,"ARG_OF_PERICENTER":346.2367,"MEAN_ANOMALY":13.5862,"EPHEMERIS_TYPE":0,"CLASSIFICATION_TYPE":"U","NORAD_CAT_ID":30873,"ELEMENT_SET_NO":999,"REV_AT_EPOCH":98681,"BSTAR":0.00019742504,"MEAN_MOTION_DOT":3.95e-6,"MEAN_MOTION_DDOT":0},{"OBJECT_NAME":"FENGYUN 1C DEB","OBJECT_ID":"1999-025AXL","EPOCH":"2026-03-29T00:49:26.133600","MEAN_MOTION":14.19869762,"ECCENTRICITY":0.0043044,"INCLINATION":98.4773,"RA_OF_ASC_NODE":119.2488,"ARG_OF_PERICENTER":92.0063,"MEAN_ANOMALY":298.4155,"EPHEMERIS_TYPE":0,"CLASSIFICATION_TYPE":"U","NORAD_CAT_ID":30874,"ELEMENT_SET_NO":999,"REV_AT_EPOCH":98529,"BSTAR":0.00042482,"MEAN_MOTION_DOT":8.68e-6,"MEAN_MOTION_DDOT":0},{"OBJECT_NAME":"FENGYUN 1C DEB","OBJECT_ID":"1999-025AXN","EPOCH":"2026-03-29T05:15:38.676960","MEAN_MOTION":13.99268574,"ECCENTRICITY":0.0067194,"INCLINATION":98.8238,"RA_OF_ASC_NODE":74.3208,"ARG_OF_PERICENTER":342.3494,"MEAN_ANOMALY":34.1929,"EPHEMERIS_TYPE":0,"CLASSIFICATION_TYPE":"U","NORAD_CAT_ID":30876,"ELEMENT_SET_NO":999,"REV_AT_EPOCH":97199,"BSTAR":0.00023133,"MEAN_MOTION_DOT":3.0e-6,"MEAN_MOTION_DDOT":0},{"OBJECT_NAME":"FENGYUN 1C DEB","OBJECT_ID":"1999-025AXQ","EPOCH":"2026-03-27T22:50:35.911392","MEAN_MOTION":14.1212678,"ECCENTRICITY":0.0040516,"INCLINATION":98.7246,"RA_OF_ASC_NODE":90.5624,"ARG_OF_PERICENTER":356.6556,"MEAN_ANOMALY":33.0283,"EPHEMERIS_TYPE":0,"CLASSIFICATION_TYPE":"U","NORAD_CAT_ID":30878,"ELEMENT_SET_NO":999,"REV_AT_EPOCH":97852,"BSTAR":0.00052283,"MEAN_MOTION_DOT":9.24e-6,"MEAN_MOTION_DDOT":0},{"OBJECT_NAME":"FENGYUN 1C DEB","OBJECT_ID":"1999-025AXR","EPOCH":"2026-03-25T03:02:47.793984","MEAN_MOTION":14.73458484,"ECCENTRICITY":0.0185354,"INCLINATION":99.3482,"RA_OF_ASC_NODE":320.8021,"ARG_OF_PERICENTER":325.8716,"MEAN_ANOMALY":33.0682,"EPHEMERIS_TYPE":0,"CLASSIFICATION_TYPE":"U","NORAD_CAT_ID":30879,"ELEMENT_SET_NO":999,"REV_AT_EPOCH":63444,"BSTAR":0.0029616,"MEAN_MOTION_DOT":0.00025318,"MEAN_MOTION_DDOT":0},{"OBJECT_NAME":"FENGYUN 1C DEB","OBJECT_ID":"1999-025AXS","EPOCH":"2026-03-28T22:07:14.509344","MEAN_MOTION":14.26317569,"ECCENTRICITY":0.0023552,"INCLINATION":98.7818,"RA_OF_ASC_NODE":165.0772,"ARG_OF_PERICENTER":155.4276,"MEAN_ANOMALY":204.8032,"EPHEMERIS_TYPE":0,"CLASSIFICATION_TYPE":"U","NORAD_CAT_ID":30880,"ELEMENT_SET_NO":999,"REV_AT_EPOCH":98227,"BSTAR":0.0012645,"MEAN_MOTION_DOT":3.001e-5,"MEAN_MOTION_DDOT":0},{"OBJECT_NAME":"FENGYUN 1C DEB","OBJECT_ID":"1999-025AXU","EPOCH":"2026-03-28T21:29:11.321088","MEAN_MOTION":14.89493982,"ECCENTRICITY":0.0146393,"INCLINATION":97.925,"RA_OF_ASC_NODE":148.3356,"ARG_OF_PERICENTER":52.3593,"MEAN_ANOMALY":309.0804,"EPHEMERIS_TYPE":0,"CLASSIFICATION_TYPE":"U","NORAD_CAT_ID":30882,"ELEMENT_SET_NO":999,"REV_AT_EPOCH":1228,"BSTAR":0.0011546,"MEAN_MOTION_DOT":0.00013412,"MEAN_MOTION_DDOT":0},{"OBJECT_NAME":"FENGYUN 1C DEB","OBJECT_ID":"1999-025AXV","EPOCH":"2026-03-28T20:18:53.345664","MEAN_MOTION":14.14637021,"ECCENTRICITY":0.01109315,"INCLINATION":98.3467,"RA_OF_ASC_NODE":123.1744,"ARG_OF_PERICENTER":268.1212,"MEAN_ANOMALY":271.5553,"EPHEMERIS_TYPE":0,"CLASSIFICATION_TYPE":"U","NORAD_CAT_ID":30883,"ELEMENT_SET_NO":999,"REV_AT_EPOCH":98417,"BSTAR":0.00016139957,"MEAN_MOTION_DOT":2.88e-6,"MEAN_MOTION_DDOT":0},{"OBJECT_NAME":"FENGYUN 1C DEB","OBJECT_ID":"1999-025AXW","EPOCH":"2026-03-28T18:10:19.278912","MEAN_MOTION":14.76333994,"ECCENTRICITY":0.00634287,"INCLINATION":98.8932,"RA_OF_ASC_NODE":96.9477,"ARG_OF_PERICENTER":4.2471,"MEAN_ANOMALY":355.9261,"EPHEMERIS_TYPE":0,"CLASSIFICATION_TYPE":"U","NORAD_CAT_ID":30884,"ELEMENT_SET_NO":999,"REV_AT_EPOCH":197,"BSTAR":0.0021107371,"MEAN_MOTION_DOT":0.00015103,"MEAN_MOTION_DDOT":0},{"OBJECT_NAME":"FENGYUN 1C DEB","OBJECT_ID":"1999-025AXX","EPOCH":"2026-03-28T01:56:25.705248","MEAN_MOTION":14.51385059,"ECCENTRICITY":0.00517151,"INCLINATION":99.0257,"RA_OF_ASC_NODE":300.166,"ARG_OF_PERICENTER":263.3549,"MEAN_ANOMALY":248.4569,"EPHEMERIS_TYPE":0,"CLASSIFICATION_TYPE":"U","NORAD_CAT_ID":30885,"ELEMENT_SET_NO":999,"REV_AT_EPOCH":98504,"BSTAR":0.0018283319,"MEAN_MOTION_DOT":7.371e-5,"MEAN_MOTION_DDOT":0},{"OBJECT_NAME":"FENGYUN 1C DEB","OBJECT_ID":"1999-025AXY","EPOCH":"2026-03-29T04:09:18.063936","MEAN_MOTION":14.23579632,"ECCENTRICITY":0.0035922,"INCLINATION":99.2054,"RA_OF_ASC_NODE":351.0092,"ARG_OF_PERICENTER":88.9779,"MEAN_ANOMALY":271.5513,"EPHEMERIS_TYPE":0,"CLASSIFICATION_TYPE":"U","NORAD_CAT_ID":30886,"ELEMENT_SET_NO":999,"REV_AT_EPOCH":97910,"BSTAR":0.0015811,"MEAN_MOTION_DOT":3.578e-5,"MEAN_MOTION_DDOT":0}]
